{
  "norad_id": 62832,
  "name": "STARLINK-11549 [DTC]",
  "history": [
    {
      "epoch": "2026-03-28T17:39:46.507680Z",
      "apogee_km": 356.816283741965,
      "perigee_km": 355.7172290489216,
      "latitude_deg": -1.5249000100242384e-05,
      "longitude_deg": 100.31187557752185,
      "height_km": 356.06476294961163,
      "semi_major_axis_km": 6734.403756395443,
      "eccentricity": 8.16e-05,
      "inclination_deg": 43.0,
      "raan_deg": 191.4078,
      "arg_perigee_deg": 267.2799,
      "mean_anomaly_deg": 92.7975,
      "mean_motion_rev_day": 15.70919881
    },
    {
      "epoch": "2026-03-28T23:46:01.234848Z",
      "apogee_km": 356.81752218982365,
      "perigee_km": 355.7548302126188,
      "latitude_deg": 1.6837114564559525e-05,
      "longitude_deg": 6.9680603877642575,
      "height_km": 355.5277468048563,
      "semi_major_axis_km": 6734.4231762012205,
      "eccentricity": 7.89e-05,
      "inclination_deg": 43.0013,
      "raan_deg": 189.876,
      "arg_perigee_deg": 355.7085,
      "mean_anomaly_deg": 4.3776,
      "mean_motion_rev_day": 15.70913086
    },
    {
      "epoch": "2026-03-30T04:45:39.345984Z",
      "apogee_km": 358.3512906531787,
      "perigee_km": 354.3744337945391,
      "latitude_deg": 2.8736466410412615e-05,
      "longitude_deg": -76.41296056606905,
      "height_km": 355.25089602320634,
      "semi_major_axis_km": 6734.499862223859,
      "eccentricity": 0.00029526,
      "inclination_deg": 43.0033,
      "raan_deg": 182.5945,
      "arg_perigee_deg": 296.4552,
      "mean_anomaly_deg": 63.6013,
      "mean_motion_rev_day": 15.70886254
    },
    {
      "epoch": "2026-03-30T13:55:01.551648Z",
      "apogee_km": 357.19710608675996,
      "perigee_km": 355.38392882195967,
      "latitude_deg": -2.3894484045506898e-06,
      "longitude_deg": 143.5695526196246,
      "height_km": 355.3039820653876,
      "semi_major_axis_km": 6734.427517454359,
      "eccentricity": 0.00013462,
      "inclination_deg": 43.0016,
      "raan_deg": 180.2956,
      "arg_perigee_deg": 326.81,
      "mean_anomaly_deg": 33.2683,
      "mean_motion_rev_day": 15.70911567
    },
    {
      "epoch": "2026-03-30T15:26:34.565568Z",
      "apogee_km": 357.4613286699105,
      "perigee_km": 355.3386026183389,
      "latitude_deg": -2.811435162426293e-05,
      "longitude_deg": 120.23660335583087,
      "height_km": 356.24021604728176,
      "semi_major_axis_km": 6734.536965644124,
      "eccentricity": 0.0001576,
      "inclination_deg": 43.0016,
      "raan_deg": 179.9129,
      "arg_perigee_deg": 266.3542,
      "mean_anomaly_deg": 93.7145,
      "mean_motion_rev_day": 15.70873272
    },
    {
      "epoch": "2026-03-31T14:19:58.564704Z",
      "apogee_km": 357.7856696742774,
      "perigee_km": 355.11607904088214,
      "latitude_deg": -1.668916806664762e-05,
      "longitude_deg": 130.19746150148183,
      "height_km": 355.8352035849092,
      "semi_major_axis_km": 6734.5878743575795,
      "eccentricity": 0.0001982,
      "inclination_deg": 43.0004,
      "raan_deg": 174.1638,
      "arg_perigee_deg": 286.9264,
      "mean_anomaly_deg": 73.1386,
      "mean_motion_rev_day": 15.7085546
    },
    {
      "epoch": "2026-04-01T11:41:49.014240Z",
      "apogee_km": 358.05090962454324,
      "perigee_km": 354.34433184929003,
      "latitude_deg": -2.191397882172275e-06,
      "longitude_deg": 163.49398285885397,
      "height_km": 356.0970613312052,
      "semi_major_axis_km": 6734.334620736917,
      "eccentricity": 0.0002752,
      "inclination_deg": 43.0005,
      "raan_deg": 168.7979,
      "arg_perigee_deg": 266.1026,
      "mean_anomaly_deg": 93.9527,
      "mean_motion_rev_day": 15.70944072
    },
    {
      "epoch": "2026-04-02T20:00:01.999008Z",
      "apogee_km": 357.1977263411327,
      "perigee_km": 355.46696771894585,
      "latitude_deg": 36.72507559487743,
      "longitude_deg": 82.20743225164003,
      "height_km": 358.8576308620358,
      "semi_major_axis_km": 6734.469347030039,
      "eccentricity": 0.0001285,
      "inclination_deg": 43.0005,
      "raan_deg": 160.6855,
      "arg_perigee_deg": 269.8066,
      "mean_anomaly_deg": 151.0995,
      "mean_motion_rev_day": 15.70896931
    },
    {
      "epoch": "2026-04-02T22:00:01.999584Z",
      "apogee_km": 357.09256324065973,
      "perigee_km": 355.33058827929744,
      "latitude_deg": 4.917032860662014,
      "longitude_deg": 173.65229056529273,
      "height_km": 355.5549490322181,
      "semi_major_axis_km": 6734.348575759978,
      "eccentricity": 0.00013082,
      "inclination_deg": 43.0004,
      "raan_deg": 160.1826,
      "arg_perigee_deg": 267.7515,
      "mean_anomaly_deg": 265.0011,
      "mean_motion_rev_day": 15.70939189
    },
    {
      "epoch": "2026-04-03T12:31:42.041568Z",
      "apogee_km": 357.46088276976207,
      "perigee_km": 355.2565476322634,
      "latitude_deg": 1.6936481865031917e-05,
      "longitude_deg": 136.75422315273565,
      "height_km": 355.6388266883212,
      "semi_major_axis_km": 6734.495715201013,
      "eccentricity": 0.00016366,
      "inclination_deg": 43.001,
      "raan_deg": 156.5345,
      "arg_perigee_deg": 296.5455,
      "mean_anomaly_deg": 63.5245,
      "mean_motion_rev_day": 15.70887705
    },
    {
      "epoch": "2026-04-04T12:56:40.735104Z",
      "apogee_km": 357.79267794106727,
      "perigee_km": 354.53596982083855,
      "latitude_deg": 8.498256347114477e-06,
      "longitude_deg": 123.37391524179712,
      "height_km": 355.72624486308894,
      "semi_major_axis_km": 6734.301323880953,
      "eccentricity": 0.0002418,
      "inclination_deg": 43.0013,
      "raan_deg": 150.4015,
      "arg_perigee_deg": 277.4614,
      "mean_anomaly_deg": 82.5979,
      "mean_motion_rev_day": 15.70955723
    },
    {
      "epoch": "2026-04-05T11:50:05.021088Z",
      "apogee_km": 357.56818492722414,
      "perigee_km": 355.230088671251,
      "latitude_deg": 4.557608123620978e-05,
      "longitude_deg": 133.3336996966138,
      "height_km": 355.8947809010048,
      "semi_major_axis_km": 6734.536136799237,
      "eccentricity": 0.00017359,
      "inclination_deg": 43.002,
      "raan_deg": 144.6525,
      "arg_perigee_deg": 283.7212,
      "mean_anomaly_deg": 76.3463,
      "mean_motion_rev_day": 15.70873562
    },
    {
      "epoch": "2026-04-06T03:05:40.151616Z",
      "apogee_km": 356.3645168880839,
      "perigee_km": 355.8133878361432,
      "latitude_deg": -1.1264050658928815e-05,
      "longitude_deg": -100.02363535238229,
      "height_km": 356.0588062089795,
      "semi_major_axis_km": 6734.225952362113,
      "eccentricity": 4.092e-05,
      "inclination_deg": 42.997,
      "raan_deg": 140.8183,
      "arg_perigee_deg": 223.827,
      "mean_anomaly_deg": 136.2565,
      "mean_motion_rev_day": 15.70982097
    },
    {
      "epoch": "2026-04-07T11:08:25.719648Z",
      "apogee_km": 357.64948698701664,
      "perigee_km": 355.0647881370214,
      "latitude_deg": 3.3060249303683185e-06,
      "longitude_deg": 129.92382777249495,
      "height_km": 355.8008484951762,
      "semi_major_axis_km": 6734.494137562019,
      "eccentricity": 0.0001919,
      "inclination_deg": 43.0028,
      "raan_deg": 132.7717,
      "arg_perigee_deg": 284.7696,
      "mean_anomaly_deg": 75.2959,
      "mean_motion_rev_day": 15.70888257
    },
    {
      "epoch": "2026-04-07T18:46:14.385216Z",
      "apogee_km": 356.7860721195957,
      "perigee_km": 356.053352349305,
      "latitude_deg": 1.3159553794821935e-05,
      "longitude_deg": 13.240203589595607,
      "height_km": 355.84432600098677,
      "semi_major_axis_km": 6734.55671223445,
      "eccentricity": 5.44e-05,
      "inclination_deg": 43.0002,
      "raan_deg": 130.8542,
      "arg_perigee_deg": 18.9887,
      "mean_anomaly_deg": 341.1001,
      "mean_motion_rev_day": 15.70866363
    },
    {
      "epoch": "2026-04-08T11:33:23.406624Z",
      "apogee_km": 357.1722790967624,
      "perigee_km": 355.54549427037364,
      "latitude_deg": 3.110726413321271e-05,
      "longitude_deg": 116.54866147753438,
      "height_km": 355.88723131995295,
      "semi_major_axis_km": 6734.495886683568,
      "eccentricity": 0.00012078,
      "inclination_deg": 43.0011,
      "raan_deg": 126.6396,
      "arg_perigee_deg": 287.4596,
      "mean_anomaly_deg": 72.614,
      "mean_motion_rev_day": 15.70887645
    },
    {
      "epoch": "2026-04-09T07:23:39.381216Z",
      "apogee_km": 357.388728740616,
      "perigee_km": 355.360563213314,
      "latitude_deg": -5.1721736611405205e-06,
      "longitude_deg": 173.1850512012084,
      "height_km": 356.13262891718705,
      "semi_major_axis_km": 6734.511645976965,
      "eccentricity": 0.00015058,
      "inclination_deg": 43.0005,
      "raan_deg": 121.6573,
      "arg_perigee_deg": 270.8253,
      "mean_anomaly_deg": 89.2442,
      "mean_motion_rev_day": 15.70882131
    },
    {
      "epoch": "2026-04-10T01:42:22.665888Z",
      "apogee_km": 358.8318310337181,
      "perigee_km": 353.3291672308278,
      "latitude_deg": -2.1932703873528737e-05,
      "longitude_deg": -106.84546973428493,
      "height_km": 355.2646702197415,
      "semi_major_axis_km": 6734.217499132273,
      "eccentricity": 0.00040856,
      "inclination_deg": 43.0029,
      "raan_deg": 117.0592,
      "arg_perigee_deg": 282.3909,
      "mean_anomaly_deg": 77.6501,
      "mean_motion_rev_day": 15.70985055
    }
  ]
}